[{"OBJECT_NAME":"TEVEL2-4","OBJECT_ID":"2025-052D","EPOCH":"2026-03-09T16:39:37.129536","MEAN_MOTION":15.30925813,"ECCENTRICITY":0.0004733,"INCLINATION":97.4009,"RA_OF_ASC_NODE":325.1237,"ARG_OF_PERICENTER":95.3468,"MEAN_ANOMALY":264.8313,"EPHEMERIS_TYPE":0,"CLASSIFICATION_TYPE":"U","NORAD_CAT_ID":63213,"ELEMENT_SET_NO":999,"REV_AT_EPOCH":5487,"BSTAR":0.00070362503,"MEAN_MOTION_DOT":0.0002099,"MEAN_MOTION_DDOT":0},{"OBJECT_NAME":"STARLINK-36430","OBJECT_ID":"2026-002X","EPOCH":"2026-03-09T02:25:27.034176","MEAN_MOTION":15.27585781,"ECCENTRICITY":0.00034264,"INCLINATION":43.0007,"RA_OF_ASC_NODE":328.1775,"ARG_OF_PERICENTER":244.167,"MEAN_ANOMALY":115.8829,"EPHEMERIS_TYPE":0,"CLASSIFICATION_TYPE":"U","NORAD_CAT_ID":67326,"ELEMENT_SET_NO":999,"REV_AT_EPOCH":1115,"BSTAR":0.0010713694,"MEAN_MOTION_DOT":0.00029345,"MEAN_MOTION_DDOT":0}]
