TEVEL2-4                
1 63213U 25052D   26068.69417973  .00020990  00000+0  70363-3 0  9998
2 63213  97.4009 325.1237 0004733  95.3468 264.8313 15.30925813 54879
STARLINK-36430          
1 67326U 26002X   26068.10100734  .00029345  00000+0  10714-2 0  9999
2 67326  43.0007 328.1775 0003426 244.1670 115.8829 15.27585781 11153
